ONEWEB-0275             
1 48993U 21060AC  26161.16171601  .00000031  00000+0  47090-4 0  9998
2 48993  87.9098 230.1705 0001976  96.6214 263.5142 13.16593974238638
ONEWEB-0276             
1 48994U 21060AD  26161.19495945  .00000038  00000+0  65001-4 0  9991
2 48994  87.9100 230.1634 0002000  94.1559 265.9800 13.16593553238650
ONEWEB-0277             
1 48995U 21060AE  26161.20763108  .00000007  00000+0 -15433-4 0  9994
2 48995  87.9093 230.1701 0001878 101.1004 259.0338 13.16593498238640
ONEWEB-0278             
1 48996U 21060AF  26160.89412266 -.00000058  00000+0 -18553-3 0  9997
2 48996  87.9104 230.2220 0002275 101.7785 258.3601 13.16597164238734
ONEWEB-0279             
1 48997U 21060AG  26161.20604528  .00000019  00000+0  14816-4 0  9992
2 48997  87.9101 230.1583 0001805  95.6286 264.5051 13.16594527238703
ONEWEB-0280             
1 48998U 21060AH  26161.14507779  .00000045  00000+0  85321-4 0  9994
2 48998  87.9100 230.1748 0002017 108.5034 251.6317 13.16593268238632
ONEWEB-0281             
1 48999U 21060AJ  26161.15063234 -.00000010  00000+0 -58636-4 0  9992
2 48999  87.9100 230.1687 0002106  99.6982 260.4387 13.16594440238702
ONEWEB-0282             
1 49000U 21060AK  26161.18069320  .00000073  00000+0  15610-3 0  9992
2 49000  87.9099 230.1713 0001909 102.0169 258.1176 13.16596252238689
ONEWEB-0283             
1 49001U 21060AL  26161.16962481  .00000123  00000+0  28882-3 0  9992
2 49001  87.9099 230.1730 0001876  97.4245 262.7099 13.16594169238695
ONEWEB-0284             
1 49002U 21060AM  26160.93530748  .00000029  00000+0  42832-4 0  9991
2 49002  87.9099 230.2127 0002165 107.9151 252.2217 13.16593845238643
ONEWEB-0285             
1 49075U 21075A   26161.27516215  .00000254  00000+0  67016-3 0  9998
2 49075  87.8948 352.0368 0001756  90.6286 269.5044 13.12444108234308
ONEWEB-0286             
1 49076U 21075B   26161.25722806 -.00000320  00000+0 -92563-3 0  9993
2 49076  87.8936 352.0580 0002021  87.3170 272.8190 13.12443459233657
ONEWEB-0287             
1 49077U 21075C   26161.10458776 -.00000018  00000+0 -80070-4 0  9995
2 49077  87.9137   7.2748 0002281  88.3198 271.8195 13.17649071232696
ONEWEB-0288             
1 49078U 21075D   26161.23365064 -.00000107  00000+0 -33410-3 0  9991
2 49078  87.8947 352.0383 0002004  92.6989 267.4368 13.12442122234272
ONEWEB-0289             
1 49079U 21075E   26161.06732770  .00000002  00000+0 -26798-4 0  9990
2 49079  87.9141   7.2991 0001739  99.3702 260.7626 13.17649261233264
ONEWEB-0290             
1 49080U 21075F   26161.26827704  .00000004  00000+0 -22932-4 0  9994
2 49080  87.9146   7.2306 0001645 102.5730 257.5586 13.17648431232700
ONEWEB-0291             
1 49081U 21075G   26161.02528013  .00000090  00000+0  19970-3 0  9991
2 49081  87.9141   7.2871 0002119  94.9330 265.2044 13.17648484232668
ONEWEB-0293             
1 49082U 21075H   26161.27839059  .00000035  00000+0  57720-4 0  9999
2 49082  87.9137   7.2398 0001829  91.9934 268.1407 13.17648120232721
ONEWEB-0294             
1 49083U 21075J   26161.24042719 -.00000292  00000+0 -84818-3 0  9990
2 49083  87.8947 352.0405 0001709  99.8438 260.2884 13.12442985233665
ONEWEB-0295             
1 49084U 21075K   26161.27755106 -.00000091  00000+0 -26778-3 0  9993
2 49084  87.9137   7.2441 0002151  90.9632 269.1746 13.17648047232685
ONEWEB-0296             
1 49085U 21075L   26161.22010132  .00000325  00000+0  86891-3 0  9992
2 49085  87.8951 352.0518 0002100  95.1630 264.9738 13.12442156233665
ONEWEB-0297             
1 49086U 21075M   26161.25058814 -.00000444  00000+0 -12687-2 0  9990
2 49086  87.8937 352.0574 0001927  89.7732 270.3617 13.12443541234274
ONEWEB-0298             
1 49087U 21075N   26161.28190631 -.00000986  00000+0 -25723-2 0  9994
2 49087  87.9134   7.2412 0001963  83.5200 276.6155 13.17652964232716
ONEWEB-0299             
1 49088U 21075P   26161.28346604 -.00000039  00000+0 -13380-3 0  9994
2 49088  87.9148   7.2204 0002040  86.6679 273.4686 13.17649464232694
ONEWEB-0300             
1 49089U 21075Q   26161.24296230 -.00000397  00000+0 -11399-2 0  9994
2 49089  87.8948 352.0375 0001940  78.2429 281.8917 13.12443871234297
ONEWEB-0301             
1 49090U 21075R   26161.22687340  .00000173  00000+0  44531-3 0  9995
2 49090  87.8946 352.0392 0001779  77.8013 282.3314 13.12443341233658
ONEWEB-0302             
1 49091U 21075S   26161.06085436  .00000459  00000+0  12414-2 0  9997
2 49091  87.8950 352.0839 0001836  99.2318 260.9018 13.12442835233616
ONEWEB-0304             
1 49092U 21075T   26160.80253093  .00000068  00000+0  14161-3 0  9993
2 49092  87.9139   7.3394 0002009  88.3277 271.8084 13.17648755232605
ONEWEB-0305             
1 49093U 21075U   26161.02359133  .00000109  00000+0  24723-3 0  9992
2 49093  87.9146   7.2793 0002246  88.5349 271.6040 13.17648545232664
ONEWEB-0308             
1 49094U 21075V   26161.28278718  .00000425  00000+0  11466-2 0  9990
2 49094  87.8948 352.0321 0001799  89.5069 270.6265 13.12443662233650
