OBJECT_NAME,OBJECT_ID,EPOCH,MEAN_MOTION,ECCENTRICITY,INCLINATION,RA_OF_ASC_NODE,ARG_OF_PERICENTER,MEAN_ANOMALY,EPHEMERIS_TYPE,CLASSIFICATION_TYPE,NORAD_CAT_ID,ELEMENT_SET_NO,REV_AT_EPOCH,BSTAR,MEAN_MOTION_DOT,MEAN_MOTION_DDOT
ONEWEB-0275,2021-060AC,2026-06-10T03:52:52.263264,13.16593974,.0001976,87.9098,230.1705,96.6214,263.5142,0,U,48993,999,23863,.47089805E-4,.31E-6,0
ONEWEB-0276,2021-060AD,2026-06-10T04:40:44.496480,13.16593553,.00020003,87.9100,230.1634,94.1559,265.9800,0,U,48994,999,23865,.65001201E-4,.38E-6,0
ONEWEB-0277,2021-060AE,2026-06-10T04:58:59.325312,13.16593498,.00018785,87.9093,230.1701,101.1004,259.0338,0,U,48995,999,23864,-.1543323E-4,.7E-7,0
ONEWEB-0278,2021-060AF,2026-06-09T21:27:32.197824,13.16597164,.00022755,87.9104,230.2220,101.7785,258.3601,0,U,48996,999,23873,-.1855283E-3,-.58E-6,0
ONEWEB-0279,2021-060AG,2026-06-10T04:56:42.312192,13.16594527,.00018052,87.9101,230.1583,95.6286,264.5051,0,U,48997,999,23870,.14815876E-4,.19E-6,0
ONEWEB-0280,2021-060AH,2026-06-10T03:28:54.721056,13.16593268,.0002017,87.9100,230.1748,108.5034,251.6317,0,U,48998,999,23863,.8532079E-4,.45E-6,0
ONEWEB-0281,2021-060AJ,2026-06-10T03:36:54.634176,13.16594440,.00021069,87.9100,230.1687,99.6982,260.4387,0,U,48999,999,23870,-.58636008E-4,-.1E-6,0
ONEWEB-0282,2021-060AK,2026-06-10T04:20:11.892480,13.16596252,.00019093,87.9099,230.1713,102.0169,258.1176,0,U,49000,999,23868,.1560978E-3,.73E-6,0
ONEWEB-0283,2021-060AL,2026-06-10T04:04:15.583584,13.16594169,.00018763,87.9099,230.1730,97.4245,262.7099,0,U,49001,999,23869,.28882193E-3,.123E-5,0
ONEWEB-0284,2021-060AM,2026-06-09T22:26:50.566272,13.16593845,.00021656,87.9099,230.2127,107.9151,252.2217,0,U,49002,999,23864,.428319E-4,.29E-6,0
ONEWEB-0285,2021-075A,2026-06-10T06:36:14.009760,13.12444108,.00017566,87.8948,352.0368,90.6286,269.5044,0,U,49075,999,23430,.67016355E-3,.254E-5,0
ONEWEB-0286,2021-075B,2026-06-10T06:10:24.504384,13.12443459,.00020215,87.8936,352.0580,87.3170,272.8190,0,U,49076,999,23365,-.92563301E-3,-.32E-5,0
ONEWEB-0287,2021-075C,2026-06-10T02:30:36.382464,13.17649071,.0002281,87.9137,7.2748,88.3198,271.8195,0,U,49077,999,23269,-.8007026E-4,-.18E-6,0
ONEWEB-0288,2021-075D,2026-06-10T05:36:27.415296,13.12442122,.00020041,87.8947,352.0383,92.6989,267.4368,0,U,49078,999,23427,-.33409985E-3,-.107E-5,0
ONEWEB-0289,2021-075E,2026-06-10T01:36:57.113280,13.17649261,.00017394,87.9141,7.2991,99.3702,260.7626,0,U,49079,999,23326,-.26797678E-4,.2E-7,0
ONEWEB-0290,2021-075F,2026-06-10T06:26:19.136256,13.17648431,.00016457,87.9146,7.2306,102.5730,257.5586,0,U,49080,999,23270,-.22931632E-4,.4E-7,0
ONEWEB-0291,2021-075G,2026-06-10T00:36:24.203232,13.17648484,.00021192,87.9141,7.2871,94.9330,265.2044,0,U,49081,999,23266,.19970026E-3,.9E-6,0
ONEWEB-0293,2021-075H,2026-06-10T06:40:52.946976,13.17648120,.00018293,87.9137,7.2398,91.9934,268.1407,0,U,49082,999,23272,.57720245E-4,.35E-6,0
ONEWEB-0294,2021-075J,2026-06-10T05:46:12.909216,13.12442985,.00017093,87.8947,352.0405,99.8438,260.2884,0,U,49083,999,23366,-.84817599E-3,-.292E-5,0
ONEWEB-0295,2021-075K,2026-06-10T06:39:40.411584,13.17648047,.00021512,87.9137,7.2441,90.9632,269.1746,0,U,49084,999,23268,-.26778403E-3,-.91E-6,0
ONEWEB-0296,2021-075L,2026-06-10T05:16:56.754048,13.12442156,.00021002,87.8951,352.0518,95.1630,264.9738,0,U,49085,999,23366,.86890731E-3,.325E-5,0
ONEWEB-0297,2021-075M,2026-06-10T06:00:50.815296,13.12443541,.00019277,87.8937,352.0574,89.7732,270.3617,0,U,49086,999,23427,-.12687353E-2,-.444E-5,0
ONEWEB-0298,2021-075N,2026-06-10T06:45:56.705184,13.17652964,.00019637,87.9134,7.2412,83.5200,276.6155,0,U,49087,999,23271,-.25722714E-2,-.986E-5,0
ONEWEB-0299,2021-075P,2026-06-10T06:48:11.465856,13.17649464,.00020404,87.9148,7.2204,86.6679,273.4686,0,U,49088,999,23269,-.13379548E-3,-.39E-6,0
ONEWEB-0300,2021-075Q,2026-06-10T05:49:51.942720,13.12443871,.00019405,87.8948,352.0375,78.2429,281.8917,0,U,49089,999,23429,-.11399289E-2,-.397E-5,0
ONEWEB-0301,2021-075R,2026-06-10T05:26:41.861760,13.12443341,.00017795,87.8946,352.0392,77.8013,282.3314,0,U,49090,999,23365,.44531245E-3,.173E-5,0
ONEWEB-0302,2021-075S,2026-06-10T01:27:37.816704,13.12442835,.00018361,87.8950,352.0839,99.2318,260.9018,0,U,49091,999,23361,.12413684E-2,.459E-5,0
ONEWEB-0304,2021-075T,2026-06-09T19:15:38.672352,13.17648755,.0002009,87.9139,7.3394,88.3277,271.8084,0,U,49092,999,23260,.14161E-3,.68E-6,0
ONEWEB-0305,2021-075U,2026-06-10T00:33:58.290912,13.17648545,.00022463,87.9146,7.2793,88.5349,271.6040,0,U,49093,999,23266,.24722849E-3,.109E-5,0
ONEWEB-0308,2021-075V,2026-06-10T06:47:12.812352,13.12443662,.00017997,87.8948,352.0321,89.5069,270.6265,0,U,49094,999,23365,.11465917E-2,.425E-5,0
